EXPRESS 80              
1 45986U 20053B   24103.21974240 -.00000144  00000+0  00000+0 0  9999
2 45986   0.0337 245.5912 0001480 307.4085 166.9965  1.00269656 13657
BSAT-4B                 
1 46112U 20056A   24103.64177797 -.00000359  00000+0  00000+0 0  9991
2 46112   0.0856 108.8171 0002576 339.5767  93.7980  1.00271309 13419
MEV-2                   
1 46113U 20056B   24103.39567069 -.00000019  00000+0  00000+0 0  9992
2 46113   0.0147 202.9825 0000769 163.9054 335.6560  1.00271707 72649
GALAXY 30 (G-30)        
1 46114U 20056C   24103.56754166  .00000028  00000+0  00000+0 0  9997
2 46114   0.0169 221.5557 0001922 164.6076 254.3957  1.00272864 13318
GAOFEN-13 01            
1 46610U 20071A   24103.64892918 -.00000371  00000+0  00000+0 0  9994
2 46610   0.4497  87.0009 0012852 273.3690 192.2117  1.00266967 12941
TIANTONG-1 2            
1 46916U 20082A   24103.54667284 -.00000366  00000+0  00000+0 0  9994
2 46916   2.5085 293.3368 0000958  71.6316 157.9932  1.00274112 12678
LUCAS (JDRS-1)          
1 47202U 20089A   24103.53882420 -.00000243  00000+0  00000+0 0  9994
2 47202   0.0145 238.9802 0003429 126.9186 120.0398  1.00268170 12449
SXM-7                   
1 47240U 20096A   24103.48860476 -.00000213  00000+0  00000+0 0  9992
2 47240   0.0329  15.8063 0001570 174.7205 101.2928  1.00270194 12331
CMS-01                  
1 47256U 20099A   24103.09806478 -.00000173  00000+0  00000+0 0  9996
2 47256   0.0910  88.5177 0006291 199.3966  31.1733  1.00272428 12213
TURKSAT 5A              
1 47306U 21001A   24103.55674324  .00000145  00000+0  00000+0 0  9998
2 47306   0.0330  94.4390 0000234 151.3466 186.7890  1.00272504 11981
TIANTONG-1 3            
1 47321U 21003A   24103.53699671 -.00000164  00000+0  00000+0 0  9999
2 47321   3.0078 311.4647 0003217  53.2505 111.2864  1.00269753 11981
TJS-6                   
1 47613U 21010A   24103.55622872  .00000033  00000+0  00000+0 0  9996
2 47613   0.2114  84.2098 0001196   6.9600 128.7449  1.00270601 11835
SBIRS GEO-5 (USA 315)   
1 48618U 21042A   24103.32271878  .00000104  00000+0  00000+0 0  9997
2 48618   6.2512 325.5905 0001911  40.9087 331.5631  1.00272862 10780
FENGYUN 4B              
1 48808U 21047A   24103.63470419 -.00000340  00000+0  00000+0 0  9992
2 48808   0.1876 284.9297 0005567 203.3764  46.2521  1.00271848 10609
SXM-8                   
1 48838U 21049A   24103.17208726 -.00000213  00000+0  00000+0 0  9995
2 48838   0.0121 232.1704 0001603 104.1834 201.2190  1.00270858 10622
TIANLIAN 1-05           
1 49011U 21063A   24103.52411740  .00000099  00000+0  00000+0 0  9997
2 49011   0.4715 280.8347 0002038  88.5815  37.2922  1.00272824 10107
STAR ONE D2             
1 49055U 21069A   24103.50688691 -.00000273  00000+0  00000+0 0  9995
2 49055   0.0199 181.0597 0001016 226.4236 266.1154  1.00269204  9950
EUTELSAT QUANTUM        
1 49056U 21069B   24103.53020896  .00000117  00000+0  00000+0 0  9992
2 49056   0.0471  60.6155 0001962 315.3788  63.7790  1.00269711  9945
CHINASAT 2E (ZX 2E)     
1 49062U 21071A   24103.62913655 -.00000301  00000+0  00000+0 0  9992
2 49062   0.0569  52.5903 0002034  76.6026  36.6498  1.00273225 10068
TJS-7                   
1 49115U 21077A   24103.57932431 -.00000133  00000+0  00000+0 0  9997
2 49115   0.1439  79.0409 0000686 279.5539 311.7184  1.00273276  9831
CHINASAT 9B             
1 49125U 21080A   24103.08730064 -.00000320  00000+0  00000+0 0  9994
2 49125   0.0149 183.6362 0001412 180.5227 329.3948  1.00267916  9660
SHIJIAN-21 (SJ-21)      
1 49330U 21094A   24103.77367329 -.00000362  00000+0  00000+0 0  9999
2 49330   9.6915  45.7257 0079733  30.7105 169.2050  1.00344300  9272
SES-17                  
1 49332U 21095A   24103.50740904 -.00000280  00000+0  00000+0 0  9996
2 49332   0.0063 169.7205 0000976 194.9816 312.0481  1.00269403  9869
SYRACUSE 4A             
1 49333U 21095B   24103.21507987  .00000127  00000+0  00000+0 0  9996
2 49333   0.0117 244.6712 0001596 130.1367 309.0200  1.00268053  9975
QZS-1R                  
1 49336U 21096A   24102.83023433 -.00000248  00000+0  00000+0 0  9991
2 49336  35.8093  91.5290 0751765 270.2054 272.4965  1.00281958  9022
CHINASAT 1D (ZX 1D)     
1 49505U 21114A   24103.54665622 -.00000346  00000+0  00000+0 0  9990
2 49505   0.0329 337.8845 0001959 203.7113 346.5397  1.00268868  8855
STPSAT-6                
1 49817U 21118A   24102.56795821 -.00000053  00000+0  00000+0 0  9991
2 49817   0.0395  95.6745 0000956 259.9631 297.4202  1.00271416  8577
LDPE-1                  
1 49818U 21118B   24103.44257721 -.00000190  00000+0  00000+0 0  9994
2 49818   2.0628  88.5368 0003464 202.4237  36.7260  1.00627644  8658
EXPRESS AMU-7           
1 50001U 21123A   24103.03959409 -.00000251  00000+0  00000+0 0  9991
2 50001   0.0231 253.9087 0000159 145.2302 320.8543  1.00272889  8561
EXPRESS AMU-3           
1 50002U 21123B   24103.15594297 -.00000330  00000+0  00000+0 0  9993
2 50002   0.0254 257.2899 0000250  48.5783  54.1214  1.00272561  8542
TIANLIAN 2-02           
1 50005U 21124A   24103.57855010 -.00000024  00000+0  00000+0 0  9996
2 50005   0.8414 274.6865 0002410  75.3408 230.4514  1.00272180  8638
TURKSAT 5B              
1 50212U 21126A   24103.53729931  .00000137  00000+0  00000+0 0  9990
2 50212   0.0707 353.1431 0004976 348.4321  95.0775  1.00272816  8320
INMARSAT 6-F1           
1 50319U 21128A   24103.53743184 -.00000181  00000+0  00000+0 0  9996
2 50319   0.0170 256.0216 0000195 348.6621 233.7417  1.00271202  8285
SHIYAN 12 01 (SY-12 01) 
1 50321U 21129A   24103.75594948 -.00000171  00000+0  00000+0 0  9995
2 50321   1.6159  92.0122 0000717  37.5370  62.2966  1.00465375  8539
SHIYAN 12 02 (SY-12 02) 
1 50322U 21129B   24103.69798618 -.00000054  00000+0  00000+0 0  9999
2 50322   1.6142  92.0163 0002220 210.2023 321.5533  1.00108195  8538
TJS-9                   
1 50574U 21135A   24103.58730030 -.00000307  00000+0  00000+0 0  9998
2 50574   0.0754  89.9644 0001631  12.6619  87.3254  1.00271473  8467
USA 324                 
1 51280U 22006A   24098.33104895 -.00000122  00000+0  00000+0 0  9996
2 51280   1.6486  89.4257 0000482 311.5584  70.5879  1.00411158  8105
USA 325                 
1 51281U 22006B   24080.42394150 -.00000373  00000+0  00000+0 0  9991
2 51281   0.1054  74.3757 0000619  81.6114 298.1585  1.00165384  7901
GOES 18                 
1 51850U 22021A   24103.14386468  .00000088  00000+0  00000+0 0  9990
2 51850   0.0406  51.5187 0000356 270.8434 153.2470  1.00272549  7795
CHINASAT 6D (ZX 6D)     
1 52255U 22038A   24103.09478095 -.00000362  00000+0  00000+0 0  9996
2 52255   0.0223 244.7066 0001354  92.3472  22.9322  1.00271285  7448
NILESAT 301             
1 52817U 22061A   24103.31405833 -.00000066  00000+0  00000+0 0  9992
2 52817   0.0649  35.1611 0005892 335.1009 296.7793  1.00272426  6751
CMS-02 (GSAT 24)        
1 52903U 22067A   24103.53725779 -.00000174  00000+0  00000+0 0  9992
2 52903   0.0178 191.9727 0006672 252.7190  32.9604  1.00271683  6637
MEASAT 3D               
1 52904U 22067B   24103.53899824 -.00000251  00000+0  00000+0 0  9992
2 52904   0.0403   7.5856 0002659 337.4779 141.6951  1.00271505  6679
SES-22                  
1 52933U 22071A   24103.33343116  .00000080  00000+0  00000+0 0  9994
2 52933   0.0181 237.7926 0001255 123.6708 184.5755  1.00270461  6563
WFOV (USA 332)          
1 52940U 22073A   24103.54448066 -.00000371  00000+0  00000+0 0  9991
2 52940   1.6565  89.0152 0002577 245.3235 182.1890  1.00272652  6397
TIANLIAN 2-03           
1 53100U 22078A   24103.18594476  .00000062  00000+0  00000+0 0  9998
2 53100   1.3975 279.0592 0002576 110.2275 249.0748  1.00273221  6578
SBIRS GEO-6 (USA 336)   
1 53355U 22092A   24103.54839667 -.00000304  00000+0  00000+0 0  9990
2 53355   4.7103 311.0560 0003891  55.2477 171.3282  1.00271498  6254
EUTELSAT KONNECT VHTS   
1 53765U 22110A   24103.37809347  .00000008  00000+0  00000+0 0  9999
2 53765   0.0600  89.1463 0002557 275.8528 334.8342  1.00268788  5812
CHINASAT 1E (ZX 1E)     
1 53813U 22112A   24103.53699671 -.00000158  00000+0  00000+0 0  9997
2 53813   0.0506 305.4887 0001860  64.4366 105.9801  1.00270399  5877
SES-20                  
1 53960U 22123A   24102.50946608 -.00000108  00000+0  00000+0 0  9998
2 53960   0.0266 133.4850 0001467 291.7092 215.3158  1.00270501  5557
SES-21                  
1 53961U 22123B   24103.52132639  .00000061  00000+0  00000+0 0  9990
2 53961   0.0097 334.6058 0001029  44.6189 238.6563  1.00271265  5568
GALAXY 33 (G-33)        
1 54026U 22128A   24103.56588822  .00000071  00000+0  00000+0 0  9992
2 54026   0.0096 211.9727 0001724 159.1722 260.8026  1.00271187  5774
GALAXY 34 (G-34)        
1 54027U 22128B   24103.56667142  .00000050  00000+0  00000+0 0  9993
2 54027   0.0089 225.1613 0001340 163.1456 247.9467  1.00271320  5933
ANGOSAT 2               
1 54033U 22131A   24103.16744682  .00000127  00000+0  00000+0 0  9990
2 54033   0.0115 202.2801 0001133 257.8587 183.9877  1.00272042  5498
EUTELSAT HOTBIRD 13F    
1 54048U 22134A   24103.52324715  .00000078  00000+0  00000+0 0  9995
2 54048   0.0592 289.6336 0002401  45.6147  67.3066  1.00271467  5461
LDPE-2                  
1 54219U 22144A   24103.49484946 -.00000283  00000+0  00000+0 0  9994
2 54219   3.6683  65.1485 0000705  16.2184 223.5372  1.00631397  3829
EUTELSAT HOTBIRD 13G    
1 54225U 22146A   24103.52324715  .00000078  00000+0  00000+0 0  9995
2 54225   0.0438 242.7264 0002018 333.0454 186.7910  1.00271243  5248
CHINASAT 19 (ZX 19)     
1 54230U 22148A   24103.51229642 -.00000089  00000+0  00000+0 0  9998
2 54230   0.0323 265.4261 0004877   4.7956 278.7361  1.00271783  5397
GALAXY 31 (G-31)        
1 54243U 22153A   24103.56832485  .00000005  00000+0  00000+0 0  9995
2 54243   0.0185 133.2553 0001208 231.9764 279.6040  1.00270616  5151
